STARLINK-37284
1 68623U 26073X   26110.59028659  .00244665  00000+0  12378-2 0  9996
2 68623  97.2837 308.4473 0001563  91.3375 268.8072 15.80899577  2155
STARLINK-37231
1 68624U 26073Y   26111.91668981  .00068125  00000+0  45496-3 0  9995
2 68624  97.2849 309.8208 0001568 102.1997 171.3646 15.75139541  3480
STARLINK-37249
1 68625U 26073Z   26110.58878408  .00191417  00000+0  97534-3 0  9996
2 68625  97.2839 308.4501 0001886  63.6476 296.4986 15.80881905  2150
STARLINK-37285
1 68626U 26073AA  26111.91668981  .00053068  00000+0  35495-3 0  9995
2 68626  97.2847 309.8267 0001378  85.3553 202.1915 15.75157058  3401
STP-S29A OBJECT A
1 68627U 26074A   26110.78250423  .00007078  00000+0  30647-3 0  9993
2 68627  60.0203  38.4286 0017094 320.7355  39.2484 15.23285927  2038
MISR-C-1
1 68628U 26074B   26110.78159563  .00005983  00000+0  26044-3 0  9996
2 68628  60.0250  38.4373 0015540 323.7096  36.2929 15.23373954  2025
RAWHIDE-1
1 68629U 26074C   26110.51538421  .00008490  00000+0  35909-3 0  9998
2 68629  60.0239  39.4213 0018943 328.5105  31.4840 15.23830477  1993
STPSAT-7
1 68630U 26074D   26110.77530272  .00004468  00000+0  19344-3 0  9990
2 68630  60.0239  38.4036 0017107 333.3328  26.6871 15.24078235  2021
STP-S29A OBJECT E
1 68631U 26074E   26110.77520581  .00003149  00000+0  13980-3 0  9998
2 68631  60.0230  38.4007 0017691 333.2291  26.7875 15.24078738  2031
RAWHIDE-2
1 68632U 26074F   26110.50850287  .00009788  00000+0  40248-3 0  9991
2 68632  60.0327  39.4056 0018047 337.8277  22.2021 15.24642474  1985
MISR-C-2
1 68633U 26074G   26110.76713298  .00006582  00000+0  27132-3 0  9996
2 68633  60.0230  38.3607 0018806 344.1248  15.9241 15.25037321  2020
AGGIESAT6 (AGS6)
1 68634U 26074H   26110.23952499  .00007678  00000+0  31085-3 0  9996
2 68634  60.0222  40.3567 0019667 346.9242  13.1327 15.25419635  1958
CANVAS
1 68635U 26074J   26110.51351302  .00010000  00000+0  41778-3 0  9997
2 68635  60.0251  39.4176 0019432 331.9521  28.0511 15.24063382  1997
QIANFAN-109
1 68636U 26075A   26111.88319865  .00000180  00000+0  79053-4 0  9994
2 68636  88.9902 327.0684 0014569 166.1919 193.9672 14.19019773  2039
