[
  {
    "OBJECT_NAME": "STARLINK-37284",
    "OBJECT_ID": "2026-073X",
    "EPOCH": "2026-04-20T14:10:00.761376",
    "MEAN_MOTION": 15.80899577,
    "ECCENTRICITY": 0.00015639,
    "INCLINATION": 97.2837,
    "RA_OF_ASC_NODE": 308.4473,
    "ARG_OF_PERICENTER": 91.3375,
    "MEAN_ANOMALY": 268.8072,
    "EPHEMERIS_TYPE": 0,
    "CLASSIFICATION_TYPE": "U",
    "NORAD_CAT_ID": 68623,
    "ELEMENT_SET_NO": 999,
    "REV_AT_EPOCH": 215,
    "BSTAR": 0.00123784,
    "MEAN_MOTION_DOT": 0.00244665,
    "MEAN_MOTION_DDOT": 0
  },
  {
    "OBJECT_NAME": "STARLINK-37231",
    "OBJECT_ID": "2026-073Y",
    "EPOCH": "2026-04-21T22:00:01.999584",
    "MEAN_MOTION": 15.75139541,
    "ECCENTRICITY": 0.00015685,
    "INCLINATION": 97.2849,
    "RA_OF_ASC_NODE": 309.8208,
    "ARG_OF_PERICENTER": 102.1997,
    "MEAN_ANOMALY": 171.3646,
    "EPHEMERIS_TYPE": 0,
    "CLASSIFICATION_TYPE": "U",
    "NORAD_CAT_ID": 68624,
    "ELEMENT_SET_NO": 999,
    "REV_AT_EPOCH": 348,
    "BSTAR": 0.00045495811,
    "MEAN_MOTION_DOT": 0.00068125,
    "MEAN_MOTION_DDOT": 0
  },
  {
    "OBJECT_NAME": "STARLINK-37249",
    "OBJECT_ID": "2026-073Z",
    "EPOCH": "2026-04-20T14:07:50.944512",
    "MEAN_MOTION": 15.80881905,
    "ECCENTRICITY": 0.0001886,
    "INCLINATION": 97.2839,
    "RA_OF_ASC_NODE": 308.4501,
    "ARG_OF_PERICENTER": 63.6476,
    "MEAN_ANOMALY": 296.4986,
    "EPHEMERIS_TYPE": 0,
    "CLASSIFICATION_TYPE": "U",
    "NORAD_CAT_ID": 68625,
    "ELEMENT_SET_NO": 999,
    "REV_AT_EPOCH": 215,
    "BSTAR": 0.00097533859,
    "MEAN_MOTION_DOT": 0.00191417,
    "MEAN_MOTION_DDOT": 0
  },
  {
    "OBJECT_NAME": "STARLINK-37285",
    "OBJECT_ID": "2026-073AA",
    "EPOCH": "2026-04-21T22:00:01.999584",
    "MEAN_MOTION": 15.75157058,
    "ECCENTRICITY": 0.00013788,
    "INCLINATION": 97.2847,
    "RA_OF_ASC_NODE": 309.8267,
    "ARG_OF_PERICENTER": 85.3553,
    "MEAN_ANOMALY": 202.1915,
    "EPHEMERIS_TYPE": 0,
    "CLASSIFICATION_TYPE": "U",
    "NORAD_CAT_ID": 68626,
    "ELEMENT_SET_NO": 999,
    "REV_AT_EPOCH": 340,
    "BSTAR": 0.00035495367,
    "MEAN_MOTION_DOT": 0.00053068,
    "MEAN_MOTION_DDOT": 0
  },
  {
    "OBJECT_NAME": "STP-S29A OBJECT A",
    "OBJECT_ID": "2026-074A",
    "EPOCH": "2026-04-20T18:46:48.365472",
    "MEAN_MOTION": 15.23285927,
    "ECCENTRICITY": 0.00170944,
    "INCLINATION": 60.0203,
    "RA_OF_ASC_NODE": 38.4286,
    "ARG_OF_PERICENTER": 320.7355,
    "MEAN_ANOMALY": 39.2484,
    "EPHEMERIS_TYPE": 0,
    "CLASSIFICATION_TYPE": "U",
    "NORAD_CAT_ID": 68627,
    "ELEMENT_SET_NO": 999,
    "REV_AT_EPOCH": 203,
    "BSTAR": 0.00030647394,
    "MEAN_MOTION_DOT": 7.078e-05,
    "MEAN_MOTION_DDOT": 0
  },
  {
    "OBJECT_NAME": "MISR-C-1",
    "OBJECT_ID": "2026-074B",
    "EPOCH": "2026-04-20T18:45:29.862432",
    "MEAN_MOTION": 15.23373954,
    "ECCENTRICITY": 0.00155406,
    "INCLINATION": 60.025,
    "RA_OF_ASC_NODE": 38.4373,
    "ARG_OF_PERICENTER": 323.7096,
    "MEAN_ANOMALY": 36.2929,
    "EPHEMERIS_TYPE": 0,
    "CLASSIFICATION_TYPE": "U",
    "NORAD_CAT_ID": 68628,
    "ELEMENT_SET_NO": 999,
    "REV_AT_EPOCH": 202,
    "BSTAR": 0.00026044459,
    "MEAN_MOTION_DOT": 5.983e-05,
    "MEAN_MOTION_DDOT": 0
  },
  {
    "OBJECT_NAME": "RAWHIDE-1",
    "OBJECT_ID": "2026-074C",
    "EPOCH": "2026-04-20T12:22:09.195744",
    "MEAN_MOTION": 15.23830477,
    "ECCENTRICITY": 0.00189438,
    "INCLINATION": 60.0239,
    "RA_OF_ASC_NODE": 39.4213,
    "ARG_OF_PERICENTER": 328.5105,
    "MEAN_ANOMALY": 31.484,
    "EPHEMERIS_TYPE": 0,
    "CLASSIFICATION_TYPE": "U",
    "NORAD_CAT_ID": 68629,
    "ELEMENT_SET_NO": 999,
    "REV_AT_EPOCH": 199,
    "BSTAR": 0.00035909464,
    "MEAN_MOTION_DOT": 8.49e-05,
    "MEAN_MOTION_DDOT": 0
  },
  {
    "OBJECT_NAME": "STPSAT-7",
    "OBJECT_ID": "2026-074D",
    "EPOCH": "2026-04-20T18:36:26.155008",
    "MEAN_MOTION": 15.24078235,
    "ECCENTRICITY": 0.00171072,
    "INCLINATION": 60.0239,
    "RA_OF_ASC_NODE": 38.4036,
    "ARG_OF_PERICENTER": 333.3328,
    "MEAN_ANOMALY": 26.6871,
    "EPHEMERIS_TYPE": 0,
    "CLASSIFICATION_TYPE": "U",
    "NORAD_CAT_ID": 68630,
    "ELEMENT_SET_NO": 999,
    "REV_AT_EPOCH": 202,
    "BSTAR": 0.00019343585,
    "MEAN_MOTION_DOT": 4.468e-05,
    "MEAN_MOTION_DDOT": 0
  },
  {
    "OBJECT_NAME": "STP-S29A OBJECT E",
    "OBJECT_ID": "2026-074E",
    "EPOCH": "2026-04-20T18:36:17.781984",
    "MEAN_MOTION": 15.24078738,
    "ECCENTRICITY": 0.00176914,
    "INCLINATION": 60.023,
    "RA_OF_ASC_NODE": 38.4007,
    "ARG_OF_PERICENTER": 333.2291,
    "MEAN_ANOMALY": 26.7875,
    "EPHEMERIS_TYPE": 0,
    "CLASSIFICATION_TYPE": "U",
    "NORAD_CAT_ID": 68631,
    "ELEMENT_SET_NO": 999,
    "REV_AT_EPOCH": 203,
    "BSTAR": 0.00013979945,
    "MEAN_MOTION_DOT": 3.149e-05,
    "MEAN_MOTION_DDOT": 0
  },
  {
    "OBJECT_NAME": "RAWHIDE-2",
    "OBJECT_ID": "2026-074F",
    "EPOCH": "2026-04-20T12:12:14.647968",
    "MEAN_MOTION": 15.24642474,
    "ECCENTRICITY": 0.00180473,
    "INCLINATION": 60.0327,
    "RA_OF_ASC_NODE": 39.4056,
    "ARG_OF_PERICENTER": 337.8277,
    "MEAN_ANOMALY": 22.2021,
    "EPHEMERIS_TYPE": 0,
    "CLASSIFICATION_TYPE": "U",
    "NORAD_CAT_ID": 68632,
    "ELEMENT_SET_NO": 999,
    "REV_AT_EPOCH": 198,
    "BSTAR": 0.00040247598,
    "MEAN_MOTION_DOT": 9.788e-05,
    "MEAN_MOTION_DDOT": 0
  },
  {
    "OBJECT_NAME": "MISR-C-2",
    "OBJECT_ID": "2026-074G",
    "EPOCH": "2026-04-20T18:24:40.289472",
    "MEAN_MOTION": 15.25037321,
    "ECCENTRICITY": 0.00188066,
    "INCLINATION": 60.023,
    "RA_OF_ASC_NODE": 38.3607,
    "ARG_OF_PERICENTER": 344.1248,
    "MEAN_ANOMALY": 15.9241,
    "EPHEMERIS_TYPE": 0,
    "CLASSIFICATION_TYPE": "U",
    "NORAD_CAT_ID": 68633,
    "ELEMENT_SET_NO": 999,
    "REV_AT_EPOCH": 202,
    "BSTAR": 0.00027132296,
    "MEAN_MOTION_DOT": 6.582e-05,
    "MEAN_MOTION_DDOT": 0
  },
  {
    "OBJECT_NAME": "AGGIESAT6 (AGS6)",
    "OBJECT_ID": "2026-074H",
    "EPOCH": "2026-04-20T05:44:54.959136",
    "MEAN_MOTION": 15.25419635,
    "ECCENTRICITY": 0.00196672,
    "INCLINATION": 60.0222,
    "RA_OF_ASC_NODE": 40.3567,
    "ARG_OF_PERICENTER": 346.9242,
    "MEAN_ANOMALY": 13.1327,
    "EPHEMERIS_TYPE": 0,
    "CLASSIFICATION_TYPE": "U",
    "NORAD_CAT_ID": 68634,
    "ELEMENT_SET_NO": 999,
    "REV_AT_EPOCH": 195,
    "BSTAR": 0.00031084563,
    "MEAN_MOTION_DOT": 7.678e-05,
    "MEAN_MOTION_DDOT": 0
  },
  {
    "OBJECT_NAME": "CANVAS",
    "OBJECT_ID": "2026-074J",
    "EPOCH": "2026-04-20T12:19:27.524928",
    "MEAN_MOTION": 15.24063382,
    "ECCENTRICITY": 0.00194322,
    "INCLINATION": 60.0251,
    "RA_OF_ASC_NODE": 39.4176,
    "ARG_OF_PERICENTER": 331.9521,
    "MEAN_ANOMALY": 28.0511,
    "EPHEMERIS_TYPE": 0,
    "CLASSIFICATION_TYPE": "U",
    "NORAD_CAT_ID": 68635,
    "ELEMENT_SET_NO": 999,
    "REV_AT_EPOCH": 199,
    "BSTAR": 0.00041778419,
    "MEAN_MOTION_DOT": 0.0001,
    "MEAN_MOTION_DDOT": 0
  },
  {
    "OBJECT_NAME": "QIANFAN-109",
    "OBJECT_ID": "2026-075A",
    "EPOCH": "2026-04-21T21:11:48.363360",
    "MEAN_MOTION": 14.19019773,
    "ECCENTRICITY": 0.00145696,
    "INCLINATION": 88.9902,
    "RA_OF_ASC_NODE": 327.0684,
    "ARG_OF_PERICENTER": 166.1919,
    "MEAN_ANOMALY": 193.9672,
    "EPHEMERIS_TYPE": 0,
    "CLASSIFICATION_TYPE": "U",
    "NORAD_CAT_ID": 68636,
    "ELEMENT_SET_NO": 999,
    "REV_AT_EPOCH": 203,
    "BSTAR": 7.9052624e-05,
    "MEAN_MOTION_DOT": 1.8e-06,
    "MEAN_MOTION_DDOT": 0
  }
]